OBJECT_NAME,OBJECT_ID,EPOCH,MEAN_MOTION,ECCENTRICITY,INCLINATION,RA_OF_ASC_NODE,ARG_OF_PERICENTER,MEAN_ANOMALY,EPHEMERIS_TYPE,CLASSIFICATION_TYPE,NORAD_CAT_ID,ELEMENT_SET_NO,REV_AT_EPOCH,BSTAR,MEAN_MOTION_DOT,MEAN_MOTION_DDOT
SPOT 7,2014-034A,2026-07-10T14:30:43.053408,14.60978882,.00015539,98.0619,253.4920,96.5914,263.5464,0,U,40053,999,64055,.71540232E-4,.305E-5,0
SKYSAT-B,2014-037D,2026-07-09T10:47:30.495264,14.88083411,.00051123,98.3850,150.6859,191.8576,168.2520,0,U,40072,999,64927,.10518908E-3,.906E-5,0
WORLDVIEW-3 (WV-3),2014-048A,2026-07-10T14:46:12.548064,14.85059867,.00009439,97.8558,266.1243,161.7868,198.3381,0,U,40115,999,64538,.56481764E-4,.429E-5,0
GAOFEN-2,2014-049A,2026-07-10T14:55:52.399200,14.80926878,.00079658,98.0100,255.8062,147.5239,212.6465,0,U,40118,999,64270,.12168722E-3,.888E-5,0
YAOGAN-21,2014-053A,2026-07-10T15:06:19.863648,15.26725167,.00083175,97.1470,230.8619,23.7064,336.4557,0,U,40143,999,65853,.29521552E-3,.7697E-4,0
YAOGAN-22,2014-063A,2026-07-10T09:09:00.567648,13.15531516,.00067907,100.7754,343.0425,135.2333,224.9327,0,U,40275,999,56286,.95321425E-4,-.11E-6,0
ASNARO,2014-070A,2026-07-10T14:26:00.538368,15.19793065,.00068739,97.3448,267.0861,100.8749,259.3260,0,U,40298,999,64756,.39965805E-3,.8498E-4,0
YAOGAN-24,2014-072A,2026-07-10T14:28:57.286848,14.76114543,.00142193,98.1514,329.1409,184.3231,175.7858,0,U,40310,999,62717,.63194051E-4,.384E-5,0
CBERS 4,2014-079A,2026-07-10T14:18:50.404608,14.35516036,.00009992,98.3522,247.6925,50.0882,310.0392,0,U,40336,999,60731,.95713954E-4,.233E-5,0
YAOGAN-26,2014-088A,2026-07-10T14:25:53.831136,15.48311705,.00026466,97.0646,191.2762,4.7693,355.3583,0,U,40362,999,64132,.26764504E-3,.14059E-3,0
SMAP,2015-003A,2026-07-10T14:25:43.212576,14.63386753,.00015635,98.1281,198.3645,96.0825,264.0555,0,U,40376,999,61104,.55145509E-4,.238E-5,0
KOMPSAT-3A,2015-014A,2026-07-10T14:34:48.514080,15.55233003,.00566704,97.6889,184.7028,91.7692,269.0053,0,U,40536,999,62545,.29959502E-3,.21679E-3,0
SENTINEL-2A,2015-028A,2026-07-10T13:42:42.778944,14.30814020,.0001257,98.5676,266.0906,94.0141,266.1186,0,U,40697,999,57707,.71025812E-4,.143E-5,0
GAOFEN-8,2015-030A,2026-07-10T15:24:22.023648,15.46831608,.00099546,97.6902,26.4341,109.7010,250.5313,0,U,40701,999,61507,.3474941E-3,.17391E-3,0
CARBONITE 1 (CBNT-1),2015-032D,2026-07-10T14:03:16.725600,14.83660110,.00134957,97.6523,8.6746,212.9435,147.0940,0,U,40718,999,59281,.18319438E-3,.1464E-4,0
YAOGAN-27,2015-040A,2026-07-10T14:16:48.571968,13.16070872,.00083911,100.1168,176.9627,155.4042,204.7473,0,U,40878,999,52074,-.80430775E-3,-.348E-5,0
GAOFEN-9 01,2015-047A,2026-07-10T14:41:11.442336,14.82929525,.00286965,97.6271,226.2415,64.8304,295.5881,0,U,40894,999,58366,.7918529E-4,.596E-5,0
YAOGAN-28,2015-064A,2026-07-10T13:51:18.656064,15.27721702,.00120298,97.3096,329.3704,107.2730,252.9827,0,U,41026,999,59425,.15961214E-3,.4258E-4,0
YAOGAN-29,2015-069A,2026-07-10T14:08:16.981152,14.83106640,.00011314,98.0028,220.2579,20.8823,339.2437,0,U,41038,999,57409,.99515924E-4,.757E-5,0
KENT RIDGE 1,2015-077B,2026-07-09T22:50:07.872864,15.23266301,.00082275,14.9795,96.6661,201.1244,158.8739,0,U,41167,999,58457,.90645004E-4,.2977E-4,0
GAOFEN-4,2015-083A,2026-07-10T14:06:29.941056,1.00269408,.00044243,0.4141,83.8766,120.1467,41.8032,0,U,41194,999,3876,0,-.325E-5,0
JASON-3,2016-002A,2026-07-10T14:44:45.343680,12.87628399,.00082294,66.0417,76.5834,271.3383,88.6693,0,U,41240,999,49026,.81385691E-4,-.42E-6,0
SENTINEL-3A,2016-011A,2026-07-10T13:40:31.835424,14.26738963,.00013943,98.6239,258.6164,91.5602,268.5738,0,U,41335,999,54139,.3493575E-4,.41E-6,0
ZIYUAN 3-02 (ZY 3-02),2016-033A,2026-07-10T14:32:12.191424,15.21406307,.00136062,97.3830,266.9294,201.2064,158.8610,0,U,41556,999,56154,.15358588E-3,.3384E-4,0
CARTOSAT-2C,2016-040A,2026-07-10T13:46:48.571392,15.19248237,.00098569,97.4475,251.2291,58.9404,301.2797,0,U,41599,999,55726,.30792998E-3,.643E-4,0
SKYSAT-C1,2016-040C,2026-07-09T08:37:19.298496,15.36681886,.00009197,96.9561,220.8806,6.2368,353.8888,0,U,41601,999,56127,.19474005E-3,.6902E-4,0
LAPAN-A3,2016-040E,2026-07-10T14:55:18.450048,15.33259489,.00083295,97.1497,187.0005,296.1610,63.8776,0,U,41603,999,55840,.70282848E-4,.2185E-4,0
GAOFEN-3,2016-049A,2026-07-10T14:28:28.176960,14.42218422,.00017711,98.4020,199.0354,88.1030,272.0363,0,U,41727,999,52202,.21288013E-4,.27E-6,0
SKYSAT-C4,2016-058B,2026-07-10T07:56:08.357856,15.49327873,.0003294,96.9171,212.1432,125.0872,235.0690,0,U,41771,999,54905,.24128845E-3,.13127E-3,0
SKYSAT-C5,2016-058C,2026-07-09T22:14:08.690208,15.33955160,.00020348,97.0465,230.5527,135.3938,224.7470,0,U,41772,999,54723,.22859962E-3,.7436E-4,0
SKYSAT-C2,2016-058D,2026-07-10T11:40:06.062592,15.42607580,.00020347,97.0164,212.7103,13.3625,346.7677,0,U,41773,999,54864,.2024409E-3,.8725E-4,0
SKYSAT-C3,2016-058E,2026-07-10T00:24:41.926752,15.53540793,.00021894,96.9003,220.9981,133.5121,226.6316,0,U,41774,999,54965,.284373E-3,.18005E-3,0
ALSAT-1B,2016-059C,2026-07-10T14:52:00.562080,14.72292999,.00099976,97.7758,199.3719,143.0215,217.1684,0,U,41785,999,52402,.64558019E-4,.361E-5,0
PATHFINDER 1,2016-059E,2026-07-09T16:52:09.502464,14.67689171,.00295437,97.8173,188.9636,132.4766,227.8944,0,U,41787,999,52301,.76166385E-4,.39E-5,0
SCATSAT 1,2016-059H,2026-07-10T03:21:02.698848,14.79579540,.00548444,98.1179,255.1415,172.7125,187.4896,0,U,41790,999,10498,.11605942E-3,.834E-5,0
GOKTURK 1A,2016-073A,2026-07-10T13:42:46.272096,14.62790966,.00014294,98.1222,85.8761,79.5446,280.5917,0,U,41875,999,51224,.31846598E-4,.116E-5,0
RESOURCESAT-2A,2016-074A,2026-07-10T13:53:03.751296,14.21608289,.0002678,98.7520,264.8912,38.4834,321.6533,0,U,41877,999,49762,.65713519E-4,.1E-5,0
CARTOSAT-2D,2017-008A,2026-07-10T14:32:37.305312,15.19266527,.00056794,97.4099,250.4730,150.8667,209.2886,0,U,41948,999,52113,.22365959E-3,.465E-4,0
SENTINEL-2B,2017-013A,2026-07-10T13:32:21.853248,14.30814615,.00012189,98.5684,266.0083,89.9925,270.1398,0,U,42063,999,48798,.62306443E-4,.12E-5,0
CARTOSAT-2E,2017-036C,2026-07-10T13:23:14.111808,15.19238000,.00028039,97.4271,250.9737,205.5475,154.5622,0,U,42767,999,50169,.25149242E-3,.5232E-4,0
FORMOSAT-5,2017-049A,2026-07-10T13:39:48.747744,14.50907046,.00116515,98.2247,266.3590,17.8958,342.2645,0,U,42920,999,47006,.24790113E-4,.54E-6,0
SENTINEL-5P,2017-064A,2026-07-10T07:42:36.714528,14.19522787,.00011159,98.7929,133.2886,92.4357,267.6947,0,U,42969,999,45284,.24329893E-4,.7E-7,0
SKYSAT-C11,2017-068A,2026-07-09T15:48:01.789056,15.59105762,.00008121,97.4368,340.4901,166.0165,194.1114,0,U,42987,999,48674,.27644744E-3,.21499E-3,0
SKYSAT-C10,2017-068B,2026-07-09T15:42:35.169408,15.35042344,.00013609,97.4523,327.7297,109.0541,251.0850,0,U,42988,999,48580,.23222205E-3,.7814E-4,0
SKYSAT-C9,2017-068C,2026-07-09T15:06:23.132160,15.42121068,.00090649,97.4443,328.8561,62.2816,297.9350,0,U,42989,999,48621,.2150963E-3,.913E-4,0
SKYSAT-C8,2017-068D,2026-07-09T15:45:21.893760,15.37418486,.00012242,97.4543,327.6181,99.9689,260.1694,0,U,42990,999,48576,.20711554E-3,.7514E-4,0
SKYSAT-C7,2017-068E,2026-07-10T04:06:59.264064,15.37378749,.00061426,97.4551,329.1314,37.9429,322.2247,0,U,42991,999,48590,.20467599E-3,.7419E-4,0
SKYSAT-C6,2017-068F,2026-07-09T15:34:22.752480,15.34106572,.00051627,97.4588,328.4799,103.1836,256.9983,0,U,42992,999,48576,.19987016E-3,.6518E-4,0
CARTOSAT-2F,2018-004A,2026-07-10T14:10:10.975584,15.19249801,.00023733,97.4779,250.9952,144.8953,215.2439,0,U,43111,999,47088,.19183069E-3,.3974E-4,0
GAOFEN-1 02,2018-031A,2026-07-10T14:40:55.238016,14.76470243,.00016823,98.0516,254.0723,313.5827,46.5243,0,U,43259,999,44615,.15100683E-3,.999E-5,0
GAOFEN-1 03,2018-031B,2026-07-10T14:09:20.531808,14.76458628,.00027774,98.0506,253.9059,28.0877,332.0482,0,U,43260,999,44614,.64981796E-4,.401E-5,0
GAOFEN-1 04,2018-031D,2026-07-10T15:11:58.777152,14.76468530,.00015097,98.0518,254.1433,57.2082,302.9273,0,U,43262,999,44614,.90279005E-4,.577E-5,0
SENTINEL-3B,2018-039A,2026-07-09T10:06:02.564928,14.26741005,.00010167,98.6239,257.6331,120.0757,240.0524,0,U,43437,999,42729,.40006667E-4,.53E-6,0
GAOFEN-5 01,2018-043A,2026-07-09T16:02:21.142464,14.60621115,.00023973,98.4586,162.7286,43.0598,317.0789,0,U,43461,999,43497,.53023303E-4,.209E-5,0
GAOFEN-6,2018-048A,2026-07-10T14:06:28.704672,14.76379900,.00121497,98.0960,254.2789,94.5097,265.7501,0,U,43484,999,43684,.56572482E-4,.341E-5,0
GAOFEN-11 01,2018-063A,2026-07-10T14:06:28.296864,15.55978840,.0002631,97.1281,258.4099,220.2684,139.8376,0,U,43585,999,44398,.20226941E-3,.13963E-3,0
ICESAT-2,2018-070A,2026-07-10T14:19:10.807968,15.28299106,.00057901,92.0086,297.3048,75.1983,284.9908,0,U,43613,999,43603,.23165123E-3,.6386E-4,0
HYSIS,2018-096A,2026-07-10T13:23:18.555360,14.78667289,.00018869,97.9830,258.1217,86.3639,273.7788,0,U,43719,999,41087,.1892774E-3,.1335E-4,0
KAZSTSAT,2018-099AB,2026-07-10T01:07:10.242048,14.99947199,.00077099,97.4316,221.9432,0.8177,359.3058,0,U,43783,999,41473,.91754934E-4,.1084E-4,0
SAUDISAT 5A,2018-102A,2026-07-10T14:33:37.843200,15.28291260,.00108141,97.3060,252.7378,58.1234,302.1057,0,U,43831,999,41925,.1312453E-3,.3548E-4,0
SAUDISAT 5B,2018-102C,2026-07-10T14:55:14.052288,15.28535752,.00115653,97.3169,255.8647,59.5373,300.7007,0,U,43833,999,41937,.12004721E-3,.3264E-4,0
GAOFEN-10R,2019-066A,2026-07-10T15:12:05.836896,14.83051058,.00070666,98.0513,145.3844,64.8957,295.2988,0,U,44622,999,36585,.85931026E-4,.644E-5,0
CARTOSAT-3,2019-081A,2026-07-10T14:30:43.727328,15.19302890,.00134499,97.4299,253.0938,75.6848,284.5879,0,U,44804,999,36702,.87890455E-4,.1791E-4,0
GAOFEN-12 01,2019-082A,2026-07-10T14:24:13.792032,14.80477263,.00012173,97.8106,197.3621,52.0674,308.0648,0,U,44819,999,35755,.337909E-4,.208E-5,0
CSG-1,2019-092A,2026-07-10T14:42:03.868992,14.82148959,.00014933,97.8893,14.8764,90.6372,269.5013,0,U,44873,999,35494,.3414732E-4,.22E-5,0
NEMO-HD,2020-061F,2026-07-10T13:52:32.532384,15.45073481,.00011003,97.1911,253.3000,82.9648,277.1727,0,U,46277,999,32559,.16825831E-3,.7865E-4,0
